LEGION 1                
1 59625U 24081A   26186.17176709  .00005893  00000+0  30315-3 0  9992
2 59625  97.5008 263.8376 0007964 311.2567  48.7980 15.16797089120264
LEGION 2                
1 59626U 24081B   26186.26797664  .00005625  00000+0  28956-3 0  9993
2 59626  97.5008 264.0301 0009818 272.9704  87.0405 15.16777146120284
LEGION 3                
1 60452U 24146A   26185.79087757  .00005709  00000+0  30871-3 0  9998
2 60452  45.0023 296.1539 0008883 280.2636  79.7241 15.15607432104696
LEGION 4                
1 60453U 24146B   26186.05618752  .00006327  00000+0  33499-3 0  9990
2 60453  45.0021  26.6226 0011653  48.6960 311.4920 15.16184257103582
LEGION 5                
1 62900U 25025A   26186.25468915  .00005320  00000+0  28522-3 0  9995
2 62900  44.9997 204.5281 0008467 253.1269 106.8681 15.16031213 77238
LEGION 6                
1 62901U 25025B   26186.11958686  .00005932  00000+0  31985-3 0  9996
2 62901  45.0000 114.3690 0010366 225.4968 134.5064 15.15638500 78355
