{"fetched_at":"2026-07-05T12:48:06.667Z","source":"https://celestrak.org/NORAD/elements/gp.php?NAME=LEGION&FORMAT=JSON","constellation":"maxar-legion","records":[{"OBJECT_NAME":"LEGION 1","OBJECT_ID":"2024-081A","EPOCH":"2026-07-05T04:07:20.676576","CLASSIFICATION_TYPE":"U","MEAN_MOTION":15.16797089,"ECCENTRICITY":0.00079642,"INCLINATION":97.5008,"RA_OF_ASC_NODE":263.8376,"ARG_OF_PERICENTER":311.2567,"MEAN_ANOMALY":48.798,"EPHEMERIS_TYPE":0,"NORAD_CAT_ID":59625,"ELEMENT_SET_NO":999,"REV_AT_EPOCH":12026,"BSTAR":0.00030315091,"MEAN_MOTION_DOT":0.00005893,"MEAN_MOTION_DDOT":0},{"OBJECT_NAME":"LEGION 2","OBJECT_ID":"2024-081B","EPOCH":"2026-07-05T06:25:53.181696","CLASSIFICATION_TYPE":"U","MEAN_MOTION":15.16777146,"ECCENTRICITY":0.00098185,"INCLINATION":97.5008,"RA_OF_ASC_NODE":264.0301,"ARG_OF_PERICENTER":272.9704,"MEAN_ANOMALY":87.0405,"EPHEMERIS_TYPE":0,"NORAD_CAT_ID":59626,"ELEMENT_SET_NO":999,"REV_AT_EPOCH":12028,"BSTAR":0.00028956327,"MEAN_MOTION_DOT":0.00005625,"MEAN_MOTION_DDOT":0},{"OBJECT_NAME":"LEGION 3","OBJECT_ID":"2024-146A","EPOCH":"2026-07-04T18:58:51.822048","CLASSIFICATION_TYPE":"U","MEAN_MOTION":15.15607432,"ECCENTRICITY":0.00088839,"INCLINATION":45.0023,"RA_OF_ASC_NODE":296.1539,"ARG_OF_PERICENTER":280.2636,"MEAN_ANOMALY":79.7241,"EPHEMERIS_TYPE":0,"NORAD_CAT_ID":60452,"ELEMENT_SET_NO":999,"REV_AT_EPOCH":10469,"BSTAR":0.00030870559,"MEAN_MOTION_DOT":0.00005709,"MEAN_MOTION_DDOT":0},{"OBJECT_NAME":"LEGION 4","OBJECT_ID":"2024-146B","EPOCH":"2026-07-05T01:20:54.601728","CLASSIFICATION_TYPE":"U","MEAN_MOTION":15.16184257,"ECCENTRICITY":0.00116535,"INCLINATION":45.0021,"RA_OF_ASC_NODE":26.6226,"ARG_OF_PERICENTER":48.696,"MEAN_ANOMALY":311.492,"EPHEMERIS_TYPE":0,"NORAD_CAT_ID":60453,"ELEMENT_SET_NO":999,"REV_AT_EPOCH":10358,"BSTAR":0.00033499284,"MEAN_MOTION_DOT":0.00006327,"MEAN_MOTION_DDOT":0},{"OBJECT_NAME":"LEGION 5","OBJECT_ID":"2025-025A","EPOCH":"2026-07-05T06:06:45.142560","CLASSIFICATION_TYPE":"U","MEAN_MOTION":15.16031213,"ECCENTRICITY":0.00084671,"INCLINATION":44.9997,"RA_OF_ASC_NODE":204.5281,"ARG_OF_PERICENTER":253.1269,"MEAN_ANOMALY":106.8681,"EPHEMERIS_TYPE":0,"NORAD_CAT_ID":62900,"ELEMENT_SET_NO":999,"REV_AT_EPOCH":7723,"BSTAR":0.00028522185,"MEAN_MOTION_DOT":0.0000532,"MEAN_MOTION_DDOT":0},{"OBJECT_NAME":"LEGION 6","OBJECT_ID":"2025-025B","EPOCH":"2026-07-05T02:52:12.304704","CLASSIFICATION_TYPE":"U","MEAN_MOTION":15.156385,"ECCENTRICITY":0.00103665,"INCLINATION":45,"RA_OF_ASC_NODE":114.369,"ARG_OF_PERICENTER":225.4968,"MEAN_ANOMALY":134.5064,"EPHEMERIS_TYPE":0,"NORAD_CAT_ID":62901,"ELEMENT_SET_NO":999,"REV_AT_EPOCH":7835,"BSTAR":0.00031985017,"MEAN_MOTION_DOT":0.00005932,"MEAN_MOTION_DDOT":0}]}
